NORAD_CAT_ID,OBJECT_NAME,OBJECT_TYPE,EPOCH,MEAN_MOTION,ECCENTRICITY,INCLINATION,RA_OF_ASC_NODE,ARG_OF_PERICENTER,MEAN_ANOMALY,BSTAR,MEAN_MOTION_DOT,MEAN_MOTION_DDOT,TLE_LINE0,TLE_LINE1,TLE_LINE2,SEMIMAJOR_AXIS,PERIOD,APOGEE,PERIGEE,DECAYED
51897.0,STARLINK-3598,PAYLOAD,2024-04-10 16:35:48,15.08835431,0.000173,53.2157,252.555,91.9656,268.1534,0.0001319,1.811e-05,0.0,0 STARLINK-3598,1 51897U 22022AX  24101.69153511  .00001811  00000-0  13190-3 0  9995,2 51897  53.2157 252.5550 0001730  91.9656 268.1534 15.08835431117877,6917.894,95.438,540.956,538.563,0.0
51897.0,STARLINK-3598,PAYLOAD,2024-04-11 13:15:49,15.08837625,0.0001648,53.2166,248.6893,94.1503,265.9677,4.6706e-05,4.55e-06,0.0,0 STARLINK-3598,1 51897U 22022AX  24102.55265579  .00000455  00000-0  46706-4 0  9992,2 51897  53.2166 248.6893 0001648  94.1503 265.9677 15.08837625118003,6917.888,95.438,540.893,538.613,0.0
51897.0,STARLINK-3598,PAYLOAD,2024-04-11 16:26:35,15.08838881,0.0001545,53.2193,248.096,95.9529,264.1639,2.8787e-05,1.7e-06,0.0,0 STARLINK-3598,1 51897U 22022AX  24102.68513594  .00000170  00000-0  28787-4 0  9992,2 51897  53.2193 248.0960 0001545  95.9529 264.1639 15.08838881118021,6917.884,95.438,540.818,538.68,0.0
51897.0,STARLINK-3598,PAYLOAD,2024-04-12 14:42:00,15.08833759,0.0001391,53.218,243.932,97.4156,262.6995,1.5243e-05,-4.5e-07,0.0,0 STARLINK-3598,1 51897U 22022AX  24103.61250030 -.00000045  00000-0  15243-4 0  9994,2 51897  53.2180 243.9320 0001391  97.4156 262.6995 15.08833759118165,6917.899,95.438,540.727,538.802,0.0
51897.0,STARLINK-3598,PAYLOAD,2024-04-13 14:32:47,15.08835547,0.0001329,53.2176,239.4694,94.7887,265.3257,2.5121e-05,1.12e-06,0.0,0 STARLINK-3598,1 51897U 22022AX  24104.60610170  .00000112  00000-0  25121-4 0  9999,2 51897  53.2176 239.4694 0001329  94.7887 265.3257 15.08835547118311,6917.894,95.438,540.678,538.84,0.0
51897.0,STARLINK-3598,PAYLOAD,2024-04-14 12:48:11,15.08835143,0.0001233,53.2169,235.3066,71.8508,288.2618,8.2472e-05,1.025e-05,0.0,0 STARLINK-3598,1 51897U 22022AX  24105.53346397  .00001025  00000-0  82472-4 0  9995,2 51897  53.2169 235.3066 0001233  71.8508 288.2618 15.08835143118453,6917.895,95.438,540.613,538.907,0.0
51897.0,STARLINK-3598,PAYLOAD,2024-04-14 15:58:57,15.08836201,0.0001239,53.2167,234.7117,74.4451,285.6677,9.0297e-05,1.149e-05,0.0,0 STARLINK-3598,1 51897U 22022AX  24105.66594353  .00001149  00000-0  90297-4 0  9997,2 51897  53.2167 234.7117 0001239  74.4451 285.6677 15.08836201118477,6917.892,95.438,540.614,538.9,0.0
51897.0,STARLINK-3598,PAYLOAD,2024-04-15 12:38:58,15.08841317,0.0001264,53.2169,230.8464,73.0615,287.0516,9.7247e-05,1.26e-05,0.0,0 STARLINK-3598,1 51897U 22022AX  24106.52706158  .00001260  00000-0  97247-4 0  9997,2 51897  53.2169 230.8464 0001264  73.0615 287.0516 15.08841317118603,6917.876,95.437,540.616,538.867,0.0
51897.0,STARLINK-3598,PAYLOAD,2024-04-15 17:25:06,15.08849069,0.0001381,53.2176,229.954,83.3111,276.8039,0.00015865,2.238e-05,0.0,0 STARLINK-3598,1 51897U 22022AX  24106.72577468  .00002238  00000-0  15865-3 0  9990,2 51897  53.2176 229.9540 0001381  83.3111 276.8039 15.08849069118631,6917.853,95.437,540.673,538.762,0.0
51897.0,STARLINK-3598,PAYLOAD,2024-04-16 14:05:08,15.08835601,0.0001099,53.2161,226.0912,68.9504,291.1606,2.1884e-05,6e-07,0.0,0 STARLINK-3598,1 51897U 22022AX  24107.58690372  .00000060  00000-0  21884-4 0  9995,2 51897  53.2161 226.0912 0001099  68.9504 291.1606 15.08835601118768,6917.894,95.438,540.519,538.999,0.0
51897.0,STARLINK-3598,PAYLOAD,2024-04-16 15:40:30,15.08855563,0.0001396,53.2173,225.792,72.779,287.3355,0.00019531,2.823e-05,0.0,0 STARLINK-3598,1 51897U 22022AX  24107.65312733  .00002823  00000-0  19531-3 0  9999,2 51897  53.2173 225.7920 0001396  72.7790 287.3355 15.08855563118774,6917.833,95.437,540.664,538.732,0.0
51897.0,STARLINK-3598,PAYLOAD,2024-04-17 12:20:32,15.08838704,0.0001667,53.2187,221.9279,86.5271,273.5912,3.3109e-05,2.39e-06,0.0,0 STARLINK-3598,1 51897U 22022AX  24108.51426276  .00000239  00000-0  33109-4 0  9990,2 51897  53.2187 221.9279 0001667  86.5271 273.5912 15.08838704118901,6917.884,95.438,540.903,538.596,0.0
51897.0,STARLINK-3598,PAYLOAD,2024-04-18 12:11:19,15.08840517,0.0001504,53.2168,217.4683,75.4976,284.6183,0.00019472,2.812e-05,0.0,0 STARLINK-3598,1 51897U 22022AX  24109.50785975  .00002812  00000-0  19472-3 0  9999,2 51897  53.2168 217.4683 0001504  75.4976 284.6183 15.08840517119053,6917.879,95.438,540.784,538.703,0.0
51897.0,STARLINK-3598,PAYLOAD,2024-04-19 12:02:06,15.08839934,0.0001616,53.2177,213.0068,103.7541,256.3631,0.0001006,1.313e-05,0.0,0 STARLINK-3598,1 51897U 22022AX  24110.50145983  .00001313  00000-0  10060-3 0  9999,2 51897  53.2177 213.0068 0001616 103.7541 256.3631 15.08839934119201,6917.881,95.438,540.864,538.628,0.0
51897.0,STARLINK-3598,PAYLOAD,2024-04-20 13:28:17,15.08830348,0.0001606,53.2176,208.2495,108.9986,251.118,-7.7628e-05,-1.523e-05,0.0,0 STARLINK-3598,1 51897U 22022AX  24111.56131204 -.00001523  00000-0 -77628-4 0  9996,2 51897  53.2176 208.2495 0001606 108.9986 251.1180 15.08830348119368,6917.91,95.438,540.886,538.664,0.0
51897.0,STARLINK-3598,PAYLOAD,2024-04-21 11:43:41,15.08832723,0.0001165,53.2166,204.0839,101.3247,258.7876,-5.4793e-05,-1.16e-05,0.0,0 STARLINK-3598,1 51897U 22022AX  24112.48867714 -.00001160  00000-0 -54793-4 0  9995,2 51897  53.2166 204.0839 0001165 101.3247 258.7876 15.08832723119500,6917.903,95.438,540.574,538.962,0.0
51897.0,STARLINK-3598,PAYLOAD,2024-04-21 14:54:27,15.08835636,0.0001765,53.2177,203.4886,125.1987,234.9171,6.9688e-06,-1.77e-06,0.0,0 STARLINK-3598,1 51897U 22022AX  24112.62115298 -.00000177  00000-0  69688-5 0  9990,2 51897  53.2177 203.4886 0001765 125.1987 234.9171 15.08835636119520,6917.894,95.438,540.98,538.538,0.0
51897.0,STARLINK-3598,PAYLOAD,2024-04-22 09:59:05,15.08828876,0.0001333,53.2178,199.9202,107.5676,252.5462,0.00014354,1.997e-05,0.0,0 STARLINK-3598,1 51897U 22022AX  24113.41603940  .00001997  00000-0  14354-3 0  9992,2 51897  53.2178 199.9202 0001333 107.5676 252.5462 15.08828876119642,6917.914,95.438,540.702,538.857,0.0
51897.0,STARLINK-3598,PAYLOAD,2024-04-22 14:45:15,15.08832463,0.0001247,53.2176,199.0277,91.626,268.4875,0.00017141,2.441e-05,0.0,0 STARLINK-3598,1 51897U 22022AX  24113.61475893  .00002441  00000-0  17141-3 0  9990,2 51897  53.2176 199.0277 0001247  91.6260 268.4875 15.08832463119673,6917.903,95.438,540.631,538.906,0.0
51897.0,STARLINK-3598,PAYLOAD,2024-04-23 13:00:39,15.08837463,0.0001566,53.2183,194.8684,83.5073,276.6098,0.00019833,2.87e-05,0.0,0 STARLINK-3598,1 51897U 22022AX  24114.54212116  .00002870  00000-0  19833-3 0  9996,2 51897  53.2183 194.8684 0001566  83.5073 276.6098 15.08837463119811,6917.888,95.438,540.836,538.67,0.0
51897.0,STARLINK-3598,PAYLOAD,2024-04-24 11:16:03,15.08842566,0.0001343,53.2167,190.7045,98.091,262.0234,6.9991e-05,8.26e-06,0.0,0 STARLINK-3598,1 51897U 22022AX  24115.46948051  .00000826  00000-0  69991-4 0  9992,2 51897  53.2167 190.7045 0001343  98.0910 262.0234 15.08842566119959,6917.873,95.437,540.667,538.808,0.0
51897.0,STARLINK-3598,PAYLOAD,2024-04-25 11:06:48,15.08855773,0.000155,53.2161,186.2444,107.2288,252.8874,0.00016684,2.369e-05,0.0,0 STARLINK-3598,1 51897U 22022AX  24116.46306564  .00002369  00000-0  16684-3 0  9994,2 51897  53.2161 186.2444 0001550 107.2288 252.8874 15.08855773120107,6917.832,95.437,540.769,538.625,0.0
51897.0,STARLINK-3598,PAYLOAD,2024-04-26 10:57:36,15.08837797,0.0001401,53.2172,181.7831,116.6433,243.4703,-2.751e-05,-7.26e-06,0.0,0 STARLINK-3598,1 51897U 22022AX  24117.45667660 -.00000726  00000-0 -27510-4 0  9999,2 51897  53.2172 181.7831 0001401 116.6433 243.4703 15.08837797120259,6917.887,95.438,540.721,538.783,0.0
51897.0,STARLINK-3598,PAYLOAD,2024-04-26 14:08:22,15.08839394,0.0001314,53.2166,181.1876,115.0316,245.0813,7.6311e-06,-1.66e-06,0.0,0 STARLINK-3598,1 51897U 22022AX  24117.58915495 -.00000166  00000-0  76311-5 0  9996,2 51897  53.2166 181.1876 0001314 115.0316 245.0813 15.08839394120278,6917.882,95.438,540.656,538.838,0.0
51897.0,STARLINK-3598,PAYLOAD,2024-04-27 10:48:23,15.0885723,0.0001215,53.2162,177.3208,95.347,264.7661,-0.00016432,-2.903e-05,0.0,0 STARLINK-3598,1 51897U 22022AX  24118.45026740 -.00002903  00000-0 -16432-3 0  9997,2 51897  53.2162 177.3208 0001215  95.3470 264.7661 15.08857230120404,6917.828,95.436,540.533,538.852,0.0
51897.0,STARLINK-3598,PAYLOAD,2024-04-27 20:20:40,15.08859317,0.0001472,53.2176,175.5367,117.5615,242.5527,-1.1231e-05,-4.67e-06,0.0,0 STARLINK-3598,1 51897U 22022AX  24118.84769637 -.00000467  00000-0 -11231-4 0  9995,2 51897  53.2176 175.5367 0001472 117.5615 242.5527 15.08859317120467,6917.821,95.436,540.705,538.668,0.0
51897.0,STARLINK-3598,PAYLOAD,2024-04-28 04:17:38,15.08829566,0.000223,53.2182,174.0567,105.4411,254.6828,6.3878e-05,7.28e-06,0.0,0 STARLINK-3598,1 51897U 22022AX  24119.17891810  .00000728  00000-0  63878-4 0  9993,2 51897  53.2182 174.0567 0002230 105.4411 254.6828 15.08829566120510,6917.912,95.438,541.32,538.235,0.0
51897.0,STARLINK-3598,PAYLOAD,2024-04-28 10:39:12,15.08819875,0.0001311,53.2171,172.864,90.4338,269.6804,-1.8905e-05,-5.89e-06,0.0,0 STARLINK-3598,1 51897U 22022AX  24119.44388917 -.00000589  00000-0 -18905-4 0  9990,2 51897  53.2171 172.8640 0001311  90.4338 269.6804 15.08819875120552,6917.942,95.439,540.714,538.9,0.0
51897.0,STARLINK-3598,PAYLOAD,2024-04-28 20:11:30,15.08825723,0.0001433,53.2181,171.0803,94.4667,265.6489,-6.4699e-06,-3.91e-06,0.0,0 STARLINK-3598,1 51897U 22022AX  24119.84132821 -.00000391  00000-0 -64699-5 0  9998,2 51897  53.2181 171.0803 0001433  94.4667 265.6489 15.08825723120610,6917.924,95.438,540.78,538.798,0.0
51897.0,STARLINK-3598,PAYLOAD,2024-04-29 04:08:25,15.08834059,0.0001355,53.2169,169.5924,100.6089,259.5055,7.6646e-05,9.32e-06,0.0,0 STARLINK-3598,1 51897U 22022AX  24120.17252220  .00000932  00000-0  76646-4 0  9995,2 51897  53.2169 169.5924 0001355 100.6089 259.5055 15.08834059120661,6917.899,95.438,540.701,538.826,0.0
